CCSDS_OMM_VERS = 2.0
CREATION_DATE  = 
ORIGINATOR     = 

OBJECT_NAME    = ATLAS CENTAUR R/B
OBJECT_ID      = 1972-065B
CENTER_NAME    = EARTH
REF_FRAME      = TEME
TIME_SYSTEM    = UTC
MEAN_ELEMENT_THEORY = SGP/SGP4

EPOCH          = 2026-04-03T11:45:10.399680
MEAN_MOTION    = 14.77763294
ECCENTRICITY   = .0033885
INCLINATION    = 35.0007
RA_OF_ASC_NODE = 160.4063
ARG_OF_PERICENTER = 219.8369
MEAN_ANOMALY   = 139.9843

EPHEMERIS_TYPE = 0
CLASSIFICATION_TYPE = U
NORAD_CAT_ID   = 6155
ELEMENT_SET_NO = 999
REV_AT_EPOCH   = 84493
BSTAR          = .28105E-3
MEAN_MOTION_DOT = .2047E-4
MEAN_MOTION_DDOT = 0

CCSDS_OMM_VERS = 2.0
CREATION_DATE  = 
ORIGINATOR     = 

OBJECT_NAME    = SL-8 R/B
OBJECT_ID      = 1975-112B
CENTER_NAME    = EARTH
REF_FRAME      = TEME
TIME_SYSTEM    = UTC
MEAN_ELEMENT_THEORY = SGP/SGP4

EPOCH          = 2026-04-03T03:02:47.598720
MEAN_MOTION    = 14.38218297
ECCENTRICITY   = .00146745
INCLINATION    = 74.0623
RA_OF_ASC_NODE = 333.9622
ARG_OF_PERICENTER = 57.2804
MEAN_ANOMALY   = 302.9762

EPHEMERIS_TYPE = 0
CLASSIFICATION_TYPE = U
NORAD_CAT_ID   = 8459
ELEMENT_SET_NO = 999
REV_AT_EPOCH   = 63538
BSTAR          = .12185708E-3
MEAN_MOTION_DOT = .345E-5
MEAN_MOTION_DDOT = 0

CCSDS_OMM_VERS = 2.0
CREATION_DATE  = 
ORIGINATOR     = 

OBJECT_NAME    = SL-3 R/B
OBJECT_ID      = 1977-057B
CENTER_NAME    = EARTH
REF_FRAME      = TEME
TIME_SYSTEM    = UTC
MEAN_ELEMENT_THEORY = SGP/SGP4

EPOCH          = 2026-04-03T12:16:03.668448
MEAN_MOTION    = 15.46240628
ECCENTRICITY   = .0007156
INCLINATION    = 97.5800
RA_OF_ASC_NODE = 266.5427
ARG_OF_PERICENTER = 184.2985
MEAN_ANOMALY   = 175.8203

EPHEMERIS_TYPE = 0
CLASSIFICATION_TYPE = U
NORAD_CAT_ID   = 10114
ELEMENT_SET_NO = 999
REV_AT_EPOCH   = 67216
BSTAR          = .42327E-3
MEAN_MOTION_DOT = .2077E-3
MEAN_MOTION_DDOT = 0

CCSDS_OMM_VERS = 2.0
CREATION_DATE  = 
ORIGINATOR     = 

OBJECT_NAME    = SEASAT 1
OBJECT_ID      = 1978-064A
CENTER_NAME    = EARTH
REF_FRAME      = TEME
TIME_SYSTEM    = UTC
MEAN_ELEMENT_THEORY = SGP/SGP4

EPOCH          = 2026-04-03T11:12:38.403360
MEAN_MOTION    = 14.46182737
ECCENTRICITY   = .0002715
INCLINATION    = 108.0069
RA_OF_ASC_NODE = 177.4872
ARG_OF_PERICENTER = 273.2409
MEAN_ANOMALY   = 86.8426

EPHEMERIS_TYPE = 0
CLASSIFICATION_TYPE = U
NORAD_CAT_ID   = 10967
ELEMENT_SET_NO = 999
REV_AT_EPOCH   = 51009
BSTAR          = .18915E-3
MEAN_MOTION_DOT = .54E-5
MEAN_MOTION_DDOT = 0

CCSDS_OMM_VERS = 2.0
CREATION_DATE  = 
ORIGINATOR     = 

OBJECT_NAME    = SL-14 R/B
OBJECT_ID      = 1979-011B
CENTER_NAME    = EARTH
REF_FRAME      = TEME
TIME_SYSTEM    = UTC
MEAN_ELEMENT_THEORY = SGP/SGP4

EPOCH          = 2026-04-03T09:30:20.733984
MEAN_MOTION    = 14.91943895
ECCENTRICITY   = .0015426
INCLINATION    = 82.5218
RA_OF_ASC_NODE = 73.1194
ARG_OF_PERICENTER = 340.6874
MEAN_ANOMALY   = 19.3759

EPHEMERIS_TYPE = 0
CLASSIFICATION_TYPE = U
NORAD_CAT_ID   = 11267
ELEMENT_SET_NO = 999
REV_AT_EPOCH   = 53246
BSTAR          = .10954E-3
MEAN_MOTION_DOT = .1136E-4
MEAN_MOTION_DDOT = 0

CCSDS_OMM_VERS = 2.0
CREATION_DATE  = 
ORIGINATOR     = 

OBJECT_NAME    = SL-8 R/B
OBJECT_ID      = 1979-089B
CENTER_NAME    = EARTH
REF_FRAME      = TEME
TIME_SYSTEM    = UTC
MEAN_ELEMENT_THEORY = SGP/SGP4

EPOCH          = 2026-04-03T05:30:07.822944
MEAN_MOTION    = 14.42368176
ECCENTRICITY   = .0016579
INCLINATION    = 74.0699
RA_OF_ASC_NODE = 45.6146
ARG_OF_PERICENTER = 214.9897
MEAN_ANOMALY   = 145.0171

EPHEMERIS_TYPE = 0
CLASSIFICATION_TYPE = U
NORAD_CAT_ID   = 11574
ELEMENT_SET_NO = 999
REV_AT_EPOCH   = 43964
BSTAR          = .17054E-3
MEAN_MOTION_DOT = .538E-5
MEAN_MOTION_DDOT = 0

CCSDS_OMM_VERS = 2.0
CREATION_DATE  = 
ORIGINATOR     = 

OBJECT_NAME    = SL-14 R/B
OBJECT_ID      = 1980-005B
CENTER_NAME    = EARTH
REF_FRAME      = TEME
TIME_SYSTEM    = UTC
MEAN_ELEMENT_THEORY = SGP/SGP4

EPOCH          = 2026-04-03T13:25:49.783008
MEAN_MOTION    = 14.90961567
ECCENTRICITY   = .0017228
INCLINATION    = 82.5108
RA_OF_ASC_NODE = 283.6383
ARG_OF_PERICENTER = 81.4836
MEAN_ANOMALY   = 278.8334

EPHEMERIS_TYPE = 0
CLASSIFICATION_TYPE = U
NORAD_CAT_ID   = 11672
ELEMENT_SET_NO = 999
REV_AT_EPOCH   = 48019
BSTAR          = .95689E-4
MEAN_MOTION_DOT = .972E-5
MEAN_MOTION_DDOT = 0

CCSDS_OMM_VERS = 2.0
CREATION_DATE  = 
ORIGINATOR     = 

OBJECT_NAME    = SL-8 R/B
OBJECT_ID      = 1981-003B
CENTER_NAME    = EARTH
REF_FRAME      = TEME
TIME_SYSTEM    = UTC
MEAN_ELEMENT_THEORY = SGP/SGP4

EPOCH          = 2026-04-03T11:53:40.602048
MEAN_MOTION    = 15.12132369
ECCENTRICITY   = .0259998
INCLINATION    = 82.9334
RA_OF_ASC_NODE = 267.0642
ARG_OF_PERICENTER = 92.4717
MEAN_ANOMALY   = 270.6305

EPHEMERIS_TYPE = 0
CLASSIFICATION_TYPE = U
NORAD_CAT_ID   = 12139
ELEMENT_SET_NO = 999
REV_AT_EPOCH   = 31842
BSTAR          = .77732E-3
MEAN_MOTION_DOT = .31239E-3
MEAN_MOTION_DDOT = 0

CCSDS_OMM_VERS = 2.0
CREATION_DATE  = 
ORIGINATOR     = 

OBJECT_NAME    = SL-3 R/B
OBJECT_ID      = 1981-046B
CENTER_NAME    = EARTH
REF_FRAME      = TEME
TIME_SYSTEM    = UTC
MEAN_ELEMENT_THEORY = SGP/SGP4

EPOCH          = 2026-04-03T12:04:42.410496
MEAN_MOTION    = 15.42639174
ECCENTRICITY   = .0018084
INCLINATION    = 81.2287
RA_OF_ASC_NODE = 259.9279
ARG_OF_PERICENTER = 293.9364
MEAN_ANOMALY   = 65.9984

EPHEMERIS_TYPE = 0
CLASSIFICATION_TYPE = U
NORAD_CAT_ID   = 12465
ELEMENT_SET_NO = 999
REV_AT_EPOCH   = 44225
BSTAR          = .4233E-3
MEAN_MOTION_DOT = .18585E-3
MEAN_MOTION_DDOT = 0

CCSDS_OMM_VERS = 2.0
CREATION_DATE  = 
ORIGINATOR     = 

OBJECT_NAME    = SL-3 R/B
OBJECT_ID      = 1981-103B
CENTER_NAME    = EARTH
REF_FRAME      = TEME
TIME_SYSTEM    = UTC
MEAN_ELEMENT_THEORY = SGP/SGP4

EPOCH          = 2026-04-03T11:59:23.100288
MEAN_MOTION    = 15.21685178
ECCENTRICITY   = .0013069
INCLINATION    = 81.1613
RA_OF_ASC_NODE = 184.3282
ARG_OF_PERICENTER = 198.6155
MEAN_ANOMALY   = 161.4600

EPHEMERIS_TYPE = 0
CLASSIFICATION_TYPE = U
NORAD_CAT_ID   = 12904
ELEMENT_SET_NO = 999
REV_AT_EPOCH   = 97700
BSTAR          = .37914E-3
MEAN_MOTION_DOT = .8622E-4
MEAN_MOTION_DDOT = 0

CCSDS_OMM_VERS = 2.0
CREATION_DATE  = 
ORIGINATOR     = 

OBJECT_NAME    = SL-3 R/B
OBJECT_ID      = 1982-013B
CENTER_NAME    = EARTH
REF_FRAME      = TEME
TIME_SYSTEM    = UTC
MEAN_ELEMENT_THEORY = SGP/SGP4

EPOCH          = 2026-04-03T11:56:51.825120
MEAN_MOTION    = 15.22247956
ECCENTRICITY   = .0023515
INCLINATION    = 81.1723
RA_OF_ASC_NODE = 131.6892
ARG_OF_PERICENTER = 96.5483
MEAN_ANOMALY   = 263.8427

EPHEMERIS_TYPE = 0
CLASSIFICATION_TYPE = U
NORAD_CAT_ID   = 13068
ELEMENT_SET_NO = 999
REV_AT_EPOCH   = 40812
BSTAR          = .29354E-3
MEAN_MOTION_DOT = .6828E-4
MEAN_MOTION_DDOT = 0

CCSDS_OMM_VERS = 2.0
CREATION_DATE  = 
ORIGINATOR     = 

OBJECT_NAME    = SL-3 R/B
OBJECT_ID      = 1982-039B
CENTER_NAME    = EARTH
REF_FRAME      = TEME
TIME_SYSTEM    = UTC
MEAN_ELEMENT_THEORY = SGP/SGP4

EPOCH          = 2026-04-03T12:05:36.030336
MEAN_MOTION    = 15.10229904
ECCENTRICITY   = .0028229
INCLINATION    = 81.1561
RA_OF_ASC_NODE = 187.3482
ARG_OF_PERICENTER = 241.8338
MEAN_ANOMALY   = 118.0035

EPHEMERIS_TYPE = 0
CLASSIFICATION_TYPE = U
NORAD_CAT_ID   = 13154
ELEMENT_SET_NO = 999
REV_AT_EPOCH   = 38538
BSTAR          = .29416E-3
MEAN_MOTION_DOT = .4876E-4
MEAN_MOTION_DDOT = 0

