ATLAS CENTAUR R/B       
1 06155U 72065B   26093.48970370  .00002047  00000+0  28105-3 0  9996
2 06155  35.0007 160.4063 0033885 219.8369 139.9843 14.77763294844934
SL-8 R/B                
1 08459U 75112B   26093.12693980  .00000345  00000+0  12186-3 0  9992
2 08459  74.0623 333.9622 0014674  57.2804 302.9762 14.38218297635385
SL-3 R/B                
1 10114U 77057B   26093.51115357  .00020770  00000+0  42327-3 0  9997
2 10114  97.5800 266.5427 0007156 184.2985 175.8203 15.46240628672162
SEASAT 1                
1 10967U 78064A   26093.46711115  .00000540  00000+0  18915-3 0  9999
2 10967 108.0069 177.4872 0002715 273.2409  86.8426 14.46182737510099
SL-14 R/B               
1 11267U 79011B   26093.39607331  .00001136  00000+0  10954-3 0  9999
2 11267  82.5218  73.1194 0015426 340.6874  19.3759 14.91943895532467
SL-8 R/B                
1 11574U 79089B   26093.22925721  .00000538  00000+0  17054-3 0  9996
2 11574  74.0699  45.6146 0016579 214.9897 145.0171 14.42368176439646
SL-14 R/B               
1 11672U 80005B   26093.55960397  .00000972  00000+0  95689-4 0  9992
2 11672  82.5108 283.6383 0017228  81.4836 278.8334 14.90961567480191
SL-8 R/B                
1 12139U 81003B   26093.49560882  .00031239  00000+0  77732-3 0  9996
2 12139  82.9334 267.0642 0259998  92.4717 270.6305 15.12132369318420
SL-3 R/B                
1 12465U 81046B   26093.50326864  .00018585  00000+0  42330-3 0  9992
2 12465  81.2287 259.9279 0018084 293.9364  65.9984 15.42639174442258
SL-3 R/B                
1 12904U 81103B   26093.49957292  .00008622  00000+0  37914-3 0  9990
2 12904  81.1613 184.3282 0013069 198.6155 161.4600 15.21685178977005
SL-3 R/B                
1 13068U 82013B   26093.49782205  .00006828  00000+0  29354-3 0  9998
2 13068  81.1723 131.6892 0023515  96.5483 263.8427 15.22247956408123
SL-3 R/B                
1 13154U 82039B   26093.50388924  .00004876  00000+0  29416-3 0  9994
2 13154  81.1561 187.3482 0028229 241.8338 118.0035 15.10229904385381
